{
  "type": "FeatureCollection",
  "features": [
    {
      "type": "Feature",
      "properties": {
        "norad_id": 44333,
        "name": "AT&T T-16",
        "group": "intelsat",
        "lat": 0.007245222787381612,
        "lon": 29.317552965516605,
        "alt_km": 35788.356596239806,
        "timestamp": "2025-12-04T03:47:54.221928+00:00",
        "meta_object_name": "AT&T T-16",
        "meta_object_id": "2019-034A",
        "meta_epoch": "2025-12-03T13:16:30.979776",
        "meta_mean_motion": 1.00268492,
        "meta_eccentricity": 4.55e-05,
        "meta_inclination": 0.0321,
        "meta_ra_of_asc_node": 73.2547,
        "meta_arg_of_pericenter": 90.5993,
        "meta_mean_anomaly": 7.0538,
        "meta_ephemeris_type": 0,
        "meta_classification_type": "U",
        "meta_norad_cat_id": 44333,
        "meta_element_set_no": 999,
        "meta_rev_at_epoch": 2367,
        "meta_bstar": 0,
        "meta_mean_motion_dot": -9.7e-07,
        "meta_mean_motion_ddot": 0,
        "tle_line1": "1 44333U 19034A   25337.55313634 -.00000097  00000+0  00000+0 0  9999",
        "tle_line2": "2 44333   0.0321  73.2547 0000455  90.5993   7.0538  1.00268492 23675"
      },
      "geometry": {
        "type": "Point",
        "coordinates": [
          29.317552965516605,
          0.007245222787381612
        ]
      }
    },
    {
      "type": "Feature",
      "properties": {
        "norad_id": 44476,
        "name": "INTELSAT 39 (IS-39)",
        "group": "intelsat",
        "lat": -0.03413363650721124,
        "lon": -167.8584342036238,
        "alt_km": 35783.6097218636,
        "timestamp": "2025-12-04T03:47:54.221940+00:00",
        "meta_object_name": "INTELSAT 39 (IS-39)",
        "meta_object_id": "2019-049B",
        "meta_epoch": "2025-12-03T20:07:48.019008",
        "meta_mean_motion": 1.00270304,
        "meta_eccentricity": 8.4e-05,
        "meta_inclination": 0.0175,
        "meta_ra_of_asc_node": 320.7835,
        "meta_arg_of_pericenter": 196.0033,
        "meta_mean_anomaly": 280.033,
        "meta_ephemeris_type": 0,
        "meta_classification_type": "U",
        "meta_norad_cat_id": 44476,
        "meta_element_set_no": 999,
        "meta_rev_at_epoch": 2316,
        "meta_bstar": 0,
        "meta_mean_motion_dot": 5.1e-07,
        "meta_mean_motion_ddot": 0,
        "tle_line1": "1 44476U 19049B   25337.83875022  .00000051  00000+0  00000+0 0  9997",
        "tle_line2": "2 44476   0.0175 320.7835 0000840 196.0033 280.0330  1.00270304 23167"
      },
      "geometry": {
        "type": "Point",
        "coordinates": [
          -167.8584342036238,
          -0.03413363650721124
        ]
      }
    },
    {
      "type": "Feature",
      "properties": {
        "norad_id": 46114,
        "name": "GALAXY 30 (G-30)",
        "group": "intelsat",
        "lat": 0.029759775421279545,
        "lon": 5.2292657715195965,
        "alt_km": 35789.65214050866,
        "timestamp": "2025-12-04T03:47:54.221951+00:00",
        "meta_object_name": "GALAXY 30 (G-30)",
        "meta_object_id": "2020-056C",
        "meta_epoch": "2025-12-03T16:22:26.539968",
        "meta_mean_motion": 1.00272798,
        "meta_eccentricity": 0.0002456,
        "meta_inclination": 0.0142,
        "meta_ra_of_asc_node": 314.5503,
        "meta_arg_of_pericenter": 298.758,
        "meta_mean_anomaly": 300.0812,
        "meta_ephemeris_type": 0,
        "meta_classification_type": "U",
        "meta_norad_cat_id": 46114,
        "meta_element_set_no": 999,
        "meta_rev_at_epoch": 1933,
        "meta_bstar": 0,
        "meta_mean_motion_dot": 5.4e-07,
        "meta_mean_motion_ddot": 0,
        "tle_line1": "1 46114U 20056C   25337.68225162  .00000054  00000+0  00000+0 0  9998",
        "tle_line2": "2 46114   0.0142 314.5503 0002456 298.7580 300.0812  1.00272798 19338"
      },
      "geometry": {
        "type": "Point",
        "coordinates": [
          5.2292657715195965,
          0.029759775421279545
        ]
      }
    },
    {
      "type": "Feature",
      "properties": {
        "norad_id": 54026,
        "name": "GALAXY 33 (G-33)",
        "group": "intelsat",
        "lat": 0.012209733170240935,
        "lon": -2.7732415637187753,
        "alt_km": 35788.35595443499,
        "timestamp": "2025-12-04T03:47:54.221963+00:00",
        "meta_object_name": "GALAXY 33 (G-33)",
        "meta_object_id": "2022-128A",
        "meta_epoch": "2025-12-03T16:32:53.652768",
        "meta_mean_motion": 1.00272774,
        "meta_eccentricity": 0.0001987,
        "meta_inclination": 0.0145,
        "meta_ra_of_asc_node": 350.6489,
        "meta_arg_of_pericenter": 258.6126,
        "meta_mean_anomaly": 298.7501,
        "meta_ephemeris_type": 0,
        "meta_classification_type": "U",
        "meta_norad_cat_id": 54026,
        "meta_element_set_no": 999,
        "meta_rev_at_epoch": 1178,
        "meta_bstar": 0,
        "meta_mean_motion_dot": 9.6e-07,
        "meta_mean_motion_ddot": 0,
        "tle_line1": "1 54026U 22128A   25337.68950987  .00000096  00000+0  00000+0 0  9997",
        "tle_line2": "2 54026   0.0145 350.6489 0001987 258.6126 298.7501  1.00272774 11788"
      },
      "geometry": {
        "type": "Point",
        "coordinates": [
          -2.7732415637187753,
          0.012209733170240935
        ]
      }
    },
    {
      "type": "Feature",
      "properties": {
        "norad_id": 54027,
        "name": "GALAXY 34 (G-34)",
        "group": "intelsat",
        "lat": 0.03156064363516907,
        "lon": 1.2688276563077772,
        "alt_km": 35788.22112957677,
        "timestamp": "2025-12-04T03:47:54.221974+00:00",
        "meta_object_name": "GALAXY 34 (G-34)",
        "meta_object_id": "2022-128B",
        "meta_epoch": "2025-12-03T16:34:01.044768",
        "meta_mean_motion": 1.00272088,
        "meta_eccentricity": 0.0001363,
        "meta_inclination": 0.0233,
        "meta_ra_of_asc_node": 321.8757,
        "meta_arg_of_pericenter": 286.2886,
        "meta_mean_anomaly": 304.1795,
        "meta_ephemeris_type": 0,
        "meta_classification_type": "U",
        "meta_norad_cat_id": 54027,
        "meta_element_set_no": 999,
        "meta_rev_at_epoch": 1195,
        "meta_bstar": 0,
        "meta_mean_motion_dot": 0,
        "meta_mean_motion_ddot": 0,
        "tle_line1": "1 54027U 22128B   25337.69028987  .00000000  00000+0  00000+0 0  9990",
        "tle_line2": "2 54027   0.0233 321.8757 0001363 286.2886 304.1795  1.00272088 11957"
      },
      "geometry": {
        "type": "Point",
        "coordinates": [
          1.2688276563077772,
          0.03156064363516907
        ]
      }
    },
    {
      "type": "Feature",
      "properties": {
        "norad_id": 54243,
        "name": "GALAXY 31 (G-31)",
        "group": "intelsat",
        "lat": 0.015820622143282694,
        "lon": 9.196760825787683,
        "alt_km": 35787.7934913559,
        "timestamp": "2025-12-04T03:47:54.221986+00:00",
        "meta_object_name": "GALAXY 31 (G-31)",
        "meta_object_id": "2022-153A",
        "meta_epoch": "2025-12-03T13:10:46.528896",
        "meta_mean_motion": 1.00271978,
        "meta_eccentricity": 0.0002097,
        "meta_inclination": 0.013,
        "meta_ra_of_asc_node": 357.9064,
        "meta_arg_of_pericenter": 269.749,
        "meta_mean_anomaly": 241.6575,
        "meta_ephemeris_type": 0,
        "meta_classification_type": "U",
        "meta_norad_cat_id": 54243,
        "meta_element_set_no": 999,
        "meta_rev_at_epoch": 517,
        "meta_bstar": 0,
        "meta_mean_motion_dot": 0,
        "meta_mean_motion_ddot": 0,
        "tle_line1": "1 54243U 22153A   25337.54914964  .00000000  00000+0  00000+0 0  9991",
        "tle_line2": "2 54243   0.0130 357.9064 0002097 269.7490 241.6575  1.00271978  5171"
      },
      "geometry": {
        "type": "Point",
        "coordinates": [
          9.196760825787683,
          0.015820622143282694
        ]
      }
    },
    {
      "type": "Feature",
      "properties": {
        "norad_id": 54244,
        "name": "GALAXY 32 (G-32)",
        "group": "intelsat",
        "lat": 0.03464411569413772,
        "lon": 39.21982089335975,
        "alt_km": 35787.41848313415,
        "timestamp": "2025-12-04T03:47:54.221998+00:00",
        "meta_object_name": "GALAXY 32 (G-32)",
        "meta_object_id": "2022-153B",
        "meta_epoch": "2025-12-03T13:19:23.206080",
        "meta_mean_motion": 1.00270437,
        "meta_eccentricity": 0.0002539,
        "meta_inclination": 0.0105,
        "meta_ra_of_asc_node": 329.1215,
        "meta_arg_of_pericenter": 335.3454,
        "meta_mean_anomaly": 237.0261,
        "meta_ephemeris_type": 0,
        "meta_classification_type": "U",
        "meta_norad_cat_id": 54244,
        "meta_element_set_no": 999,
        "meta_rev_at_epoch": 1118,
        "meta_bstar": 0,
        "meta_mean_motion_dot": -1.56e-06,
        "meta_mean_motion_ddot": 0,
        "tle_line1": "1 54244U 22153B   25337.55512970 -.00000156  00000+0  00000+0 0  9997",
        "tle_line2": "2 54244   0.0105 329.1215 0002539 335.3454 237.0261  1.00270437 11182"
      },
      "geometry": {
        "type": "Point",
        "coordinates": [
          39.21982089335975,
          0.03464411569413772
        ]
      }
    }
  ]
}